[{"OBJECT_NAME":"GEOSCAN 4 (RS92S4)","OBJECT_ID":"2025-155S","EPOCH":"2026-03-09T21:50:07.724832","MEAN_MOTION":15.30369837,"ECCENTRICITY":0.00070968,"INCLINATION":97.4465,"RA_OF_ASC_NODE":37.7626,"ARG_OF_PERICENTER":154.7045,"MEAN_ANOMALY":205.4544,"EPHEMERIS_TYPE":0,"CLASSIFICATION_TYPE":"U","NORAD_CAT_ID":64892,"ELEMENT_SET_NO":999,"REV_AT_EPOCH":6562,"BSTAR":0.00068609503,"MEAN_MOTION_DOT":0.00020121,"MEAN_MOTION_DDOT":0},{"OBJECT_NAME":"STARLINK-35040","OBJECT_ID":"2025-195Y","EPOCH":"2026-03-09T19:44:21.139296","MEAN_MOTION":15.30190873,"ECCENTRICITY":8.846e-5,"INCLINATION":53.1567,"RA_OF_ASC_NODE":257.5646,"ARG_OF_PERICENTER":109.9313,"MEAN_ANOMALY":250.1783,"EPHEMERIS_TYPE":0,"CLASSIFICATION_TYPE":"U","NORAD_CAT_ID":65480,"ELEMENT_SET_NO":999,"REV_AT_EPOCH":2999,"BSTAR":0.00045987975,"MEAN_MOTION_DOT":0.00013282,"MEAN_MOTION_DDOT":0}]
